#aV2007  8  2  0  0   .00000000      96 DD+AD WGS84 FIT  NGA
## 1438 345600.00000000   900.00000000 54314  .0000000000000
+   31     1  2  3  4  5  6  7  8  9 10 11 12 13 14 16 17 18
+         19 20 21 22 23 24 25 26 27 28 29 30 31 32  0  0  0
+          0  0  0  0  0  0  0  0  0  0  0  0  0  0  0  0  0
+          0  0  0  0  0  0  0  0  0  0  0  0  0  0  0  0  0
+          0  0  0  0  0  0  0  0  0  0  0  0  0  0  0  0  0
++         0  0  0  0  0  0  0  0  0  0  0  0  0  0  0  0  0
++         0  0  0  0  0  0  0  0  0  0  0  0  0  0  0  0  0
++         0  0  0  0  0  0  0  0  0  0  0  0  0  0  0  0  0
++         0  0  0  0  0  0  0  0  0  0  0  0  0  0  0  0  0
++         0  0  0  0  0  0  0  0  0  0  0  0  0  0  0  0  0
%c cc cc ccc ccc cccc cccc cccc cccc ccccc ccccc ccccc ccccc
%c cc cc ccc ccc cccc cccc cccc cccc ccccc ccccc ccccc ccccc
%f  0.0000000  0.000000000  0.00000000000  0.000000000000000
%f  0.0000000  0.000000000  0.00000000000  0.000000000000000
%i    0    0    0    0      0      0      0      0         0
%i    0    0    0    0      0      0      0      0         0
/*      NGA, ST. LOUIS,MO.                                  
/*   EPHEMERIS COMPUTED FROM  3 DAYS OF DATA                
/* CCCCCCCCCCCCCCCCCCCCCCCCCCCCCCCCCCCCCCCCCCCCCCCCCCCCCCCCC
/* CCCCCCCCCCCCCCCCCCCCCCCCCCCCCCCCCCCCCCCCCCCCCCCCCCCCCCCCC
*  2007  8  2 15 45   .00000000                                                 
P  1  -7899.925383 -14144.669794  21266.516921    143.609980                    
V  1  26434.103423    160.597772   9953.985033       .022409                    
P  2  12982.282120  23282.726567   1691.164921    126.115351                    
V  2  -3839.385902   -410.007104  31119.967574       .027911                    
P  3 -15792.935678 -11789.862909 -18167.915087     95.575245                    
V  3  22238.428125  -4624.163187 -16184.788839       .055654                    
P  4   3264.060250  23050.971507  12380.072801      3.778412                    
V  4 -10735.367650 -12233.519351  25823.200189      -.020124                    
P  5  17629.247683  -7210.098576  18203.274866    248.710652                    
V  5  -7712.881642  22535.634409  16326.499127       .414127                    
P  6  24095.079867  -7540.472143  -8116.853411    242.481809                    
V  6  10788.366288   2744.220792  28765.463403       .035492                    
P  7  22539.221209  -9474.293005 -10089.118581    171.046428                    
V  7  13579.789952   2056.735838  27415.275146      -.212733                    
P  8  -4868.642359  17782.394618 -19055.766959   -117.323873                    
V  8 -12734.193410 -20469.980731 -16380.133166      -.014397                    
P  9  19142.472020  10783.677840  14459.412888     81.425645                    
V  9   9024.941958  17218.749315 -23597.510601       .017001                    
P 10   5895.440039  16852.064852 -19674.832911    105.615510                    
V 10 -13505.790195  20853.620746  14206.030479       .004389                    
P 11 -21309.973059  -6473.966979  14568.336732     21.541202                    
V 11  -9910.953313 -16319.325949 -21281.343627       .006366                    
P 12  16585.233329   -134.032454  20830.581785    -51.375111                    
V 12 -11777.727610  23455.098287   9639.086808      -.012453                    
P 13 -23985.445890   6034.386508  -9747.745621    195.029611                    
V 13 -12170.721143  -1708.194028  29237.454555       .031090                    
P 14   7493.831554 -14056.159671  21317.903387     33.279728                    
V 14  26819.933423    492.781475  -9226.694374       .020576                    
P 16  -1135.104504 -20874.469505 -16210.704016    166.778241                    
V 16  11893.581723 -17155.391586  21310.640764       .024968                    
P 17  -9669.613296  14302.913416  20165.759835     59.129001                    
V 17 -25621.334533   -680.647917 -11946.019957      -.012659                    
P 18  17307.542721 -18302.503615  -7680.621746   -242.133166                    
V 18  -2416.071593  10277.902018 -29709.473820       .014307                    
P 19 -23558.442236  -7721.276900  -9610.390430     55.359043                    
V 19  12402.511252  -2050.623747 -28330.908730       .027803                    
P 20 -17596.167031   3684.480745  19438.095277    -27.581967                    
V 20  10416.096070 -22707.119946  13690.560013      -.005129                    
P 21  12311.672126  -9799.055861 -21217.516985     78.683642                    
V 21  14095.774352  23508.156679  -3245.557408      -.000256                    
P 22  10779.264438 -23866.689621   4448.531628    192.994877                    
V 22   5500.410967  -3059.113762 -30868.263378       .012889                    
P 23 -26675.679966    430.938366    310.236010    187.375351                    
V 23    433.672404  -2325.597598  31826.975625       .034562                    
P 24  17228.249422   2406.645717 -19785.886665     19.817540                    
V 24  11030.594052  23224.040899  12585.357311       .029216                    
P 25 -15506.224528   3659.495585 -20863.086323    392.246536                    
V 25 -15763.528368 -22388.674691   7804.516092       .149247                    
P 26  21318.522828   9262.289665 -13803.571294   -343.118434                    
V 26 -16516.916941    710.293439 -25345.930525      -.224949                    
P 27 -10737.672847  10402.589543 -21295.060695    126.396342                    
V 27 -16691.173410 -23224.193750  -3058.863571       .023485                    
P 28 -12501.729813  23205.642027   1078.640731     -4.163840                    
V 28  -3137.005940   -683.058667 -31982.299858      -.007273                    
P 29  18065.746878  10407.251875 -16480.416810      4.843877                    
V 29 -21062.076153   1609.564893 -21435.960903       .001497                    
P 30  17911.942820 -13094.944499  14199.753031     41.278246                    
V 30  -5963.951513  17866.507090  23583.315906       .011201                    
P 31  -6134.104438 -23705.604438  10393.263523     14.016680                    
V 31   8851.474082   9736.319401  28024.695451      -.010741                    
P 32   1651.088014 -21833.696840  15591.597660    542.235582                    
V 32  11610.759559 -14963.519874 -22751.437732       .194142                    
EOF
